STARLINK-2599_new
1 18383C 21038AG  21326.11908872  .00008335  00000-0  55831-3 0  3268
2 18383  53.0511 193.1977 0001879  76.4994 129.4350 15.06400428    19
STARLINK-2599_old
1 28383C 21038AG  21325.12536192  .00008078  00000-0  54116-3 0  3258
2 28383  53.0518 197.6588 0001831  74.7965 139.1204 15.06395143    13
